OPS 6582 (TRANSIT 5B-5) 
1 00965U 64083D   23177.61833247  .00000068  00000+0  82595-4 0  9991
2 00965  90.0321 196.7232 0039980 212.7320 268.8370 13.56827752896826
OSCAR 7 (AO-7)          
1 07530U 74089B   23179.18797613 -.00000029  00000+0  10639-3 0  9990
2 07530 101.9469 165.9390 0012568  43.9622 326.9577 12.53665021224792
UOSAT 2 (UO-11)         
1 14781U 84021B   23178.83927752  .00001675  00000+0  20256-3 0  9996
2 14781  97.6575 155.3570 0008679 156.5537 203.6075 14.84944814116727
NOAA 9                  
1 15427U 84123A   23178.86956834  .00000175  00000+0  11159-3 0  9999
2 15427  99.0895 163.1584 0014780 177.9555 241.2585 14.16375233989983
LUSAT (LO-19)           
1 20442U 90005G   23178.43305088  .00000234  00000+0  10187-3 0  9996
2 20442  98.8439 155.1673 0012345 144.1317 216.0697 14.33270098746879
ITAMSAT (IO-26)         
1 22826U 93061D   23178.35228517  .00000175  00000+0  84429-4 0  9996
2 22826  98.8345 221.2691 0009471  30.9763 329.1976 14.30676217552265
RADIO ROSTO (RS-15)     
1 23439U 94085A   23176.60479084 -.00000045  00000+0 -81113-4 0  9992
2 23439  64.8165 262.0723 0162295 208.7694 150.4204 11.27574861173566
JAS-2 (FO-29)           
1 24278U 96046B   23179.20764306  .00000006  00000+0  40874-4 0  9990
2 24278  98.5286 156.2596 0350823  28.4764 333.5060 13.53148194326672
NOAA 15                 
1 25338U 98030A   23179.31059572  .00000254  00000+0  12393-3 0  9996
2 25338  98.6046 208.1767 0009134 282.6804  77.3355 14.26342209306848
TECHSAT 1B (GO-32)      
1 25397U 98043D   23179.46361197  .00000103  00000+0  64994-4 0  9998
2 25397  98.8692 137.0169 0002413  96.0011 264.1442 14.23883013297154
ISS (ZARYA)             
1 25544U 98067A   23179.54643551  .00016338  00000+0  28843-3 0  9993
2 25544  51.6413 272.2199 0004700  88.2922  16.7745 15.50505341403552
ORSTED                  
1 25635U 99008B   23178.39626550  .00000906  00000+0  21813-3 0  9996
2 25635  96.4650 320.3314 0138466  64.0962 297.4435 14.49098930284830
PHASE 3D (AO-40)        
1 26609U 00072B   23178.31909549 -.00000024  00000+0  00000+0 0  9998
2 26609   6.0913 179.4555 7913470 171.6191 223.2235  1.25587351104008
PCSAT (NO-44)           
1 26931U 01043C   23178.68499345  .00000258  00000+0  12961-3 0  9994
2 26931  67.0494 169.7190 0008107 270.8201  89.1972 14.30933179135243
SAUDISAT 1C (SO-50)     
1 27607U 02058C   23178.45471440  .00001325  00000+0  19899-3 0  9996
2 27607  64.5535 233.4508 0068092 222.6698 136.9106 14.77354958103954
CUTE-1 (CO-55)          
1 27844U 03031E   23179.00924063  .00000417  00000+0  20531-3 0  9993
2 27844  98.6769 186.1068 0011106  94.1270 266.1177 14.22799878 37304
CUBESAT XI-IV (CO-57)   
1 27848U 03031J   23178.46128129  .00000378  00000+0  18951-3 0  9994
2 27848  98.6806 185.9787 0010931 108.9644 251.2719 14.22307815 37010
MOZHAYETS 4 (RS-22)     
1 27939U 03042A   23179.43932606  .00001434  00000+0  25615-3 0  9997
2 27939  98.2445 326.4847 0013761 100.6632 326.2509 14.68433870 56196
INMARSAT 4-F1           
1 28628U 05009A   23178.48882358 -.00000244  00000+0  00000+0 0  9996
2 28628   3.9189  38.5568 0002833  59.0110 137.2307  1.00271762 66781
NOAA 18                 
1 28654U 05018A   23179.39632955  .00000209  00000+0  13576-3 0  9998
2 28654  98.9093 253.7324 0013911 352.8638   7.2334 14.12960330933150
CUBESAT XI-V            
1 28895U 05043F   23178.65304608  .00001878  00000+0  35316-3 0  9991
2 28895  98.1535 310.6338 0017039  43.4505 316.8038 14.65714411942570
METOP-A                 
1 29499U 06044A   23179.43805808  .00001100  00000+0  15161-3 0  9993
2 29499  98.3998 240.1990 0192712 267.4449  88.9693 14.68614566868680
CARTOSAT-2 (IRS-P7)     
1 29710U 07001B   23179.38598709  .00044739  00000+0  57743-3 0  9993
2 29710  97.8932 317.7562 0096284 160.3817 200.1181 15.53378386894042
CAPE-1                  
1 31130U 07012P   23179.41216220  .00001080  00000+0  23021-3 0  9997
2 31130  98.3083 123.4935 0092313 207.2667 152.3670 14.58412373859853
CARTOSAT-2A             
1 32783U 08021A   23179.45812700  .00001067  00000+0  15240-3 0  9991
2 32783  97.9154 239.7393 0013144  35.8560 324.3531 14.78682083818584
CUTE-1.7+APD II (CO-65) 
1 32785U 08021C   23178.45582169  .00004758  00000+0  46946-3 0  9992
2 32785  97.7059 144.1903 0013945  72.7506 287.5238 14.92378008822420
COMPASS-1               
1 32787U 08021E   23179.18033694  .00007324  00000+0  57036-3 0  9993
2 32787  97.5859 155.4138 0009348 352.4889   7.6194 15.01483732824355
AAUSAT-II               
1 32788U 08021F   23178.46273301  .00009834  00000+0  71266-3 0  9994
2 32788  97.5608 157.6531 0006206 338.1317  21.9644 15.04136803824756
DELFI-C3 (DO-64)        
1 32789U 08021G   23178.58099613  .00062778  00000+0  16624-2 0  9992
2 32789  97.3014 200.0040 0008491 100.4993 259.7209 15.38107011829087
SEEDS II (CO-66)        
1 32791U 08021J   23178.83483616  .00005634  00000+0  49557-3 0  9993
2 32791  97.6553 149.8475 0012477  23.9005 336.2793 14.96856787823330
YUBILEINY (RS-30)       
1 32953U 08025A   23179.39144919  .00000032  00000+0  15961-3 0  9998
2 32953  82.5036 310.1253 0020232 157.9942 202.2011 12.43125924685043
FENGYUN 3A              
1 32958U 08026A   23179.42384789  .00000149  00000+0  91856-4 0  9996
2 32958  98.5555 132.8339 0009233  24.0432 336.1173 14.18883044781659
PRISM (HITOMI)          
1 33493U 09002B   23178.61518072  .00010166  00000+0  68590-3 0  9998
2 33493  98.2446 193.8646 0015971  18.4211 341.7590 15.06744853785321
STARS (KUKAI)           
1 33498U 09002G   23178.47324360  .00003134  00000+0  40057-3 0  9997
2 33498  98.1352  81.4966 0011653 116.8347 243.4058 14.82093870777354
KKS-1 (KISEKI)          
1 33499U 09002H   23178.42124798  .00001449  00000+0  21256-3 0  9993
2 33499  98.1722  70.8698 0008426 185.5485 174.5632 14.77112155776005
NOAA 19                 
1 33591U 09005A   23179.37139015  .00000197  00000+0  13108-3 0  9998
2 33591  99.0986 225.4767 0013440 207.5784 152.4676 14.12777480741523
SWISSCUBE               
1 35932U 09051B   23179.10422195  .00001111  00000+0  25368-3 0  9993
2 35932  98.5203  49.7194 0007095 343.4101  16.6864 14.57764851730843
BEESAT-1                
1 35933U 09051C   23178.58629398  .00001042  00000+0  23912-3 0  9995
2 35933  98.5131  50.5063 0005709   0.7180 359.4025 14.57667277730884
ITUPSAT1                
1 35935U 09051E   23179.11410286  .00000910  00000+0  21438-3 0  9995
2 35935  98.5230  50.9873 0008015   0.0402   0.0795 14.56715434730580
XIWANG-1 (HOPE-1)       
1 36122U 09072B   23179.18204759 -.00000021  00000+0  59522-4 0  9990
2 36122 100.2384 142.7125 0007254 192.5260 167.5674 13.16384204650345
CARTOSAT-2B             
1 36795U 10035A   23179.42775613  .00001071  00000+0  15299-3 0  9993
2 36795  97.9098 239.5984 0014416 106.2207 254.0592 14.78657571699628
TISAT 1                 
1 36799U 10035E   23179.11246724  .00005226  00000+0  46591-3 0  9994
2 36799  98.1354  49.1724 0009598 302.2021  57.8268 14.96426694704068
FENGYUN 3B              
1 37214U 10059A   23179.37770932  .00000119  00000+0  86211-4 0  9994
2 37214  99.0828 196.9367 0022492  17.4543  38.6918 14.14350876654097
JUGNU                   
1 37839U 11058B   23178.98743565  .00000484  00000+0  11491-3 0  9997
2 37839  19.9620  57.4019 0018779 338.2374  48.6795 14.12968508605427
SRMSAT                  
1 37841U 11058D   23178.63467799  .00000475  00000+0  11545-3 0  9994
2 37841  19.9706 146.8549 0011984 146.0469  10.2953 14.10907429604509
M-CUBED & EXP-1 PRIME   
1 37855U 11061F   23178.42786228  .00034311  00000+0  10487-2 0  9990
2 37855 101.7057 145.8874 0116757   9.4642 350.8743 15.27301169638596
HORYU-2                 
1 38340U 12025D   23178.48019036  .00002954  00000+0  41014-3 0  9992
2 38340  98.1706 267.3093 0012165 104.5861 255.6699 14.78642351598028
METOP-B                 
1 38771U 12049A   23179.45405093  .00000145  00000+0  85924-4 0  9995
2 38771  98.6777 238.6402 0001189  81.9497 104.5086 14.21504090559148
SARAL                   
1 39086U 13009A   23178.43883577  .00000153  00000+0  73089-4 0  9994
2 39086  98.5478   3.5787 0000816 231.5863 128.5247 14.32227870540152
AAUSAT 3                
1 39087U 13009B   23179.00360861  .00000819  00000+0  29162-3 0  9996
2 39087  98.3814  13.8536 0011263 221.3190 138.7145 14.36822952541482
STRAND-1                
1 39090U 13009E   23178.52736579  .00000406  00000+0  15573-3 0  9992
2 39090  98.3884  11.6043 0007956 228.7719 131.2782 14.35615464541228
BRITE-AUSTRIA           
1 39091U 13009F   23178.52684553  .00000266  00000+0  10716-3 0  9995
2 39091  98.3913  10.8322 0009348 237.1031 122.9256 14.35497647541247
UNIBRITE                
1 39092U 13009G   23178.79124812  .00000256  00000+0  10398-3 0  9997
2 39092  98.3950  10.9282 0008319 230.6563 129.3886 14.35370029541233
SOMP                    
1 39134U 13015E   23179.41812835  .00124804  00000+0  11932-2 0  9990
2 39134  64.8465 246.3310 0018547 276.3923  83.5115 15.65877391565125
BEESAT-3                
1 39135U 13015F   23178.72480490  .00046453  00000+0  99822-3 0  9990
2 39135  64.8580 301.6387 0019571 247.7974 112.1089 15.44207649563991
BEESAT-2                
1 39136U 13015G   23178.46710930  .00036883  00000+0  88155-3 0  9990
2 39136  64.8681 314.2491 0027938 273.5765  86.2177 15.40901839563741
NEE-01 PEGASO           
1 39151U 13018B   23179.25564759  .00002686  00000+0  33754-3 0  9993
2 39151  98.0100 289.4448 0017349 114.6392 245.6630 14.82862710549337
CUBEBUG-1 (CAPITAN BETO)
1 39153U 13018D   23179.31171685  .00002681  00000+0  32835-3 0  9998
2 39153  98.0398 295.6085 0017078 108.8361 251.4706 14.83938668549521
ESTCUBE 1               
1 39161U 13021C   23179.41831295  .00001725  00000+0  26756-3 0  9995
2 39161  97.8712 251.3643 0007857 297.4640  62.5769 14.74373868544828
